OBJECT_NAME,OBJECT_ID,EPOCH,MEAN_MOTION,ECCENTRICITY,INCLINATION,RA_OF_ASC_NODE,ARG_OF_PERICENTER,MEAN_ANOMALY,EPHEMERIS_TYPE,CLASSIFICATION_TYPE,NORAD_CAT_ID,ELEMENT_SET_NO,REV_AT_EPOCH,BSTAR,MEAN_MOTION_DOT,MEAN_MOTION_DDOT
STARLINK-37643,2026-127G,2026-06-18T20:00:01.999008,15.79050811,.0001186,53.1587,254.1434,46.2826,22.5591,0,U,69449,999,290,-.12303E-1,-.1942045E-1,0
STARLINK-37601,2026-127H,2026-06-18T20:00:01.999008,15.77852028,.0000877,53.1587,254.1330,60.3392,13.5194,0,U,69450,999,290,-.11983E-1,-.180955E-1,0
STARLINK-37578,2026-127J,2026-06-18T20:00:01.999008,15.80873190,.0000855,53.1585,254.1105,60.6253,24.0408,0,U,69451,999,290,.8228E-4,.1557E-3,0
STARLINK-37577,2026-127K,2026-06-18T20:00:01.999008,15.80880206,.000097,53.1585,254.0953,67.0257,24.9376,0,U,69452,999,290,-.91933E-5,-.2513E-4,0
STARLINK-37500,2026-127L,2026-06-18T20:00:01.999008,15.80882608,.0001118,53.1584,254.0624,69.1372,38.9703,0,U,69453,999,290,-.11069E-3,-.22499E-3,0
STARLINK-37575,2026-127M,2026-06-18T20:00:01.999008,15.80892957,.0001256,53.1586,254.0591,38.7048,70.7000,0,U,69454,999,290,-.21523E-3,-.43007E-3,0
STARLINK-37642,2026-127N,2026-06-18T20:00:01.999008,15.81224663,.000128,53.1586,254.0092,85.7584,47.8260,0,U,69455,999,290,-.57334E-2,-.1022732E-1,0
STARLINK-37513,2026-127P,2026-06-18T20:00:01.999008,15.80889765,.0001079,53.1580,253.9650,79.5983,75.3103,0,U,69456,999,290,-.13299E-3,-.26885E-3,0
STARLINK-37563,2026-127Q,2026-06-18T20:00:01.999008,15.80877179,.0001553,53.1582,253.9343,74.4928,95.2128,0,U,69457,999,290,-.23513E-4,-.5339E-4,0
STARLINK-37565,2026-127R,2026-06-18T20:00:01.999008,15.80885712,.0000788,53.1582,253.9425,60.0030,105.5520,0,U,69458,999,290,-.12365E-3,-.25045E-3,0
STARLINK-37498,2026-127S,2026-06-18T20:00:01.999008,15.80772685,.0001285,53.1586,253.9395,57.7709,109.2373,0,U,69459,999,290,-.11611E-1,-.1979055E-1,0
STARLINK-37384,2026-127T,2026-06-18T20:00:01.999008,15.80878270,.0001097,53.1581,253.9164,70.9558,107.2798,0,U,69460,999,290,-.22963E-4,-.5229E-4,0
STARLINK-37707,2026-127U,2026-06-18T20:00:01.999008,15.80985747,.0000804,53.1584,253.8511,72.0504,137.7246,0,U,69461,999,290,-.97107E-3,-.189195E-2,0
STARLINK-37525,2026-127V,2026-06-18T20:00:01.999008,15.80880609,.0001239,53.1583,253.8492,63.7529,146.8813,0,U,69462,999,290,-.11722E-3,-.23778E-3,0
STARLINK-37526,2026-127W,2026-06-18T20:00:01.999008,15.80877913,.0001059,53.1585,253.8417,58.6829,155.5083,0,U,69463,999,290,.17744E-3,.34469E-3,0
STARLINK-37574,2026-127X,2026-06-18T20:00:01.999008,15.82576214,.000083,53.1582,253.7631,46.1968,205.9735,0,U,69464,999,290,-.10683E-1,-.1981456E-1,0
STARLINK-37535,2026-127Y,2026-06-18T20:00:01.999008,15.80840799,.0000962,53.1588,253.7827,40.5204,202.1306,0,U,69465,999,290,.21766E-3,.42407E-3,0
STARLINK-37583,2026-127Z,2026-06-18T20:00:01.999008,15.84016976,.0000827,53.1581,253.6644,72.6058,227.0741,0,U,69466,999,290,-.10664E-1,-.2099275E-1,0
STARLINK-37546,2026-127AA,2026-06-18T20:00:01.999008,15.84617318,.0000934,53.1576,253.6402,66.2326,244.7044,0,U,69467,999,290,-.10549E-1,-.2132356E-1,0
STARLINK-37532,2026-127AB,2026-06-18T20:00:01.999008,15.83479559,.0000684,53.1580,253.6475,56.0794,251.3775,0,U,69468,999,290,-.10879E-1,-.2088441E-1,0
STARLINK-37708,2026-127AC,2026-06-18T20:00:01.999008,15.83635751,.0000759,53.1575,253.6324,80.3694,234.0739,0,U,69469,999,290,-.99391E-2,-.1944924E-1,0
STARLINK-37686,2026-127AD,2026-06-18T20:00:01.999008,15.84251477,.0000608,53.1576,253.6105,65.8851,259.1779,0,U,69470,999,290,-.10914E-1,-.2161471E-1,0
STARLINK-37451,2026-127AE,2026-06-18T20:00:01.999008,15.85034399,.0000699,53.1573,253.5909,60.7206,273.7793,0,U,69471,999,290,-.10936E-1,-.2236079E-1,0
DTC TEST OBJECT A,2026-128A,2026-06-18T20:07:24.019680,15.55903712,.0008616,54.9939,297.4006,295.5156,64.4988,0,U,69472,999,148,.30728E-3,.21253E-3,0
DTC TEST OBJECT B,2026-128B,2026-06-18T18:31:50.150208,15.56373019,.0008674,55.0029,297.6924,296.1431,63.8713,0,U,69473,999,146,.40095E-3,.284E-3,0
TJS-25,2026-129A,2026-06-11T11:34:53.014656,1.72502163,.7751889,16.5302,30.5351,199.9639,91.9387,0,U,69474,999,7,.19774E-2,.7407E-4,0
STARLINK-37816,2026-131A,2026-06-17T18:00:02.999808,15.96316495,.00011495,97.2824,188.9762,80.4448,35.9636,0,U,69478,999,210,-.2655077E-2,-.1093379E-1,.37145704E-3
STARLINK-37878,2026-131B,2026-06-17T10:00:01.999584,15.97036350,.00008726,97.2817,188.6149,97.2660,265.8231,0,U,69479,999,131,-.22776066E-2,-.976144E-2,.30334162E-3
STARLINK-37817,2026-131C,2026-06-17T18:00:02.999808,15.96547425,.00011812,97.2822,188.9776,77.8521,42.4103,0,U,69480,999,210,-.26268227E-2,-.1095329E-1,.37360476E-3
STARLINK-37727,2026-131D,2026-06-17T18:00:02.999808,15.96671350,.00011745,97.2819,188.9784,76.6396,45.7078,0,U,69481,999,210,-.26175375E-2,-.1098784E-1,.37628858E-3
