STARLINK-37643          
1 69449U 26127G   26169.83335647 -.01942045  00000+0 -12303-1 0  9999
2 69449  53.1587 254.1434 0001186  46.2826  22.5591 15.79050811  2902
STARLINK-37601          
1 69450U 26127H   26169.83335647 -.01809550  00000+0 -11983-1 0  9997
2 69450  53.1587 254.1330 0000877  60.3392  13.5194 15.77852028  2907
STARLINK-37578          
1 69451U 26127J   26169.83335647  .00015570  00000+0  82280-4 0  9997
2 69451  53.1585 254.1105 0000855  60.6253  24.0408 15.80873190  2903
STARLINK-37577          
1 69452U 26127K   26169.83335647 -.00002513  00000+0 -91933-5 0  9999
2 69452  53.1585 254.0953 0000970  67.0257  24.9376 15.80880206  2906
STARLINK-37500          
1 69453U 26127L   26169.83335647 -.00022499  00000+0 -11069-3 0  9995
2 69453  53.1584 254.0624 0001118  69.1372  38.9703 15.80882608  2904
STARLINK-37575          
1 69454U 26127M   26169.83335647 -.00043007  00000+0 -21523-3 0  9990
2 69454  53.1586 254.0591 0001256  38.7048  70.7000 15.80892957  2907
STARLINK-37642          
1 69455U 26127N   26169.83335647 -.01022732  00000+0 -57334-2 0  9992
2 69455  53.1586 254.0092 0001280  85.7584  47.8260 15.81224663  2905
STARLINK-37513          
1 69456U 26127P   26169.83335647 -.00026885  00000+0 -13299-3 0  9998
2 69456  53.1580 253.9650 0001079  79.5983  75.3103 15.80889765  2909
STARLINK-37563          
1 69457U 26127Q   26169.83335647 -.00005339  00000+0 -23513-4 0  9991
2 69457  53.1582 253.9343 0001553  74.4928  95.2128 15.80877179  2905
STARLINK-37565          
1 69458U 26127R   26169.83335647 -.00025045  00000+0 -12365-3 0  9990
2 69458  53.1582 253.9425 0000788  60.0030 105.5520 15.80885712  2904
STARLINK-37498          
1 69459U 26127S   26169.83335647 -.01979055  00000+0 -11611-1 0  9992
2 69459  53.1586 253.9395 0001285  57.7709 109.2373 15.80772685  2905
STARLINK-37384          
1 69460U 26127T   26169.83335647 -.00005229  00000+0 -22963-4 0  9991
2 69460  53.1581 253.9164 0001097  70.9558 107.2798 15.80878270  2902
STARLINK-37707          
1 69461U 26127U   26169.83335647 -.00189195  00000+0 -97107-3 0  9998
2 69461  53.1584 253.8511 0000804  72.0504 137.7246 15.80985747  2904
STARLINK-37525          
1 69462U 26127V   26169.83335647 -.00023778  00000+0 -11722-3 0  9992
2 69462  53.1583 253.8492 0001239  63.7529 146.8813 15.80880609  2901
STARLINK-37526          
1 69463U 26127W   26169.83335647  .00034469  00000+0  17744-3 0  9990
2 69463  53.1585 253.8417 0001059  58.6829 155.5083 15.80877913  2907
STARLINK-37574          
1 69464U 26127X   26169.83335647 -.01981456  00000+0 -10683-1 0  9994
2 69464  53.1582 253.7631 0000830  46.1968 205.9735 15.82576214  2900
STARLINK-37535          
1 69465U 26127Y   26169.83335647  .00042407  00000+0  21766-3 0  9992
2 69465  53.1588 253.7827 0000962  40.5204 202.1306 15.80840799  2904
STARLINK-37583          
1 69466U 26127Z   26169.83335647 -.02099275  00000+0 -10664-1 0  9995
2 69466  53.1581 253.6644 0000827  72.6058 227.0741 15.84016976  2902
STARLINK-37546          
1 69467U 26127AA  26169.83335647 -.02132356  00000+0 -10549-1 0  9996
2 69467  53.1576 253.6402 0000934  66.2326 244.7044 15.84617318  2904
STARLINK-37532          
1 69468U 26127AB  26169.83335647 -.02088441  00000+0 -10879-1 0  9998
2 69468  53.1580 253.6475 0000684  56.0794 251.3775 15.83479559  2905
STARLINK-37708          
1 69469U 26127AC  26169.83335647 -.01944924  00000+0 -99391-2 0  9992
2 69469  53.1575 253.6324 0000759  80.3694 234.0739 15.83635751  2901
STARLINK-37686          
1 69470U 26127AD  26169.83335647 -.02161471  00000+0 -10914-1 0  9996
2 69470  53.1576 253.6105 0000608  65.8851 259.1779 15.84251477  2909
STARLINK-37451          
1 69471U 26127AE  26169.83335647 -.02236079  00000+0 -10936-1 0  9998
2 69471  53.1573 253.5909 0000699  60.7206 273.7793 15.85034399  2907
DTC TEST OBJECT A       
1 69472U 26128A   26169.83847245  .00021253  00000+0  30728-3 0  9997
2 69472  54.9939 297.4006 0008616 295.5156  64.4988 15.55903712  1481
DTC TEST OBJECT B       
1 69473U 26128B   26169.77210822  .00028400  00000+0  40095-3 0  9995
2 69473  55.0029 297.6924 0008674 296.1431  63.8713 15.56373019  1461
TJS-25                  
1 69474U 26129A   26162.48255804  .00007407  00000+0  19774-2 0  9990
2 69474  16.5302  30.5351 7751889 199.9639  91.9387  1.72502163    78
STARLINK-37816          
1 69478U 26131A   26168.75003472 -.01093379  37146-3 -26551-2 0  9997
2 69478  97.2824 188.9762 0001149  80.4448  35.9636 15.96316495  2106
STARLINK-37878          
1 69479U 26131B   26168.41668981 -.00976144  30334-3 -22776-2 0  9999
2 69479  97.2817 188.6149 0000872  97.2660 265.8231 15.97036350  1316
STARLINK-37817          
1 69480U 26131C   26168.75003472 -.01095329  37360-3 -26268-2 0  9990
2 69480  97.2822 188.9776 0001181  77.8521  42.4103 15.96547425  2101
STARLINK-37727          
1 69481U 26131D   26168.75003472 -.01098784  37629-3 -26175-2 0  9994
2 69481  97.2819 188.9784 0001174  76.6396  45.7078 15.96671350  2108
